{"type": "FeatureCollection", "features": [ {"type": "Feature", "properties": {"norad_id": 31286, "name": "FENGYUN 1C DEB", "group": "fengyun-1c-debris", "lat": -77.96904439062338, "lon": 6.793577845197458, "alt_km": 767.7992724497781, "timestamp": "2025-12-23T20:42:37.357581+00:00", "meta": {"OBJECT_NAME": "FENGYUN 1C DEB", "OBJECT_ID": "1999-025BNU", "EPOCH": "2025-12-21T10:05:13.987392", "MEAN_MOTION": 14.22849794, "ECCENTRICITY": 0.00792235, "INCLINATION": 100.8596, "RA_OF_ASC_NODE": 248.0403, "ARG_OF_PERICENTER": 256.4033, "MEAN_ANOMALY": 102.8305, "EPHEMERIS_TYPE": 0, "CLASSIFICATION_TYPE": "U", "NORAD_CAT_ID": 31286, "ELEMENT_SET_NO": 999, "REV_AT_EPOCH": 64143, "BSTAR": 0.002079395, "MEAN_MOTION_DOT": 4.763e-05, "MEAN_MOTION_DDOT": 0}, "tle": {"line1": "1 31286U 99025BNU 25355.42030078  .00004763  00000+0  20794-2 0  9992", "line2": "2 31286 100.8596 248.0403 0079223 256.4033 102.8305 14.22849794641435"}}, "geometry": {"type": "Point", "coordinates": [6.793577845197458, -77.96904439062338]}}, {"type": "Feature", "properties": {"norad_id": 31287, "name": "FENGYUN 1C DEB", "group": "fengyun-1c-debris", "lat": 15.96188332276101, "lon": -122.6226580463157, "alt_km": 811.7785965269031, "timestamp": "2025-12-23T20:42:37.357593+00:00", "meta": {"OBJECT_NAME": "FENGYUN 1C DEB", "OBJECT_ID": "1999-025BNV", "EPOCH": "2025-12-17T09:14:55.199040", "MEAN_MOTION": 14.280549, "ECCENTRICITY": 0.0027206, "INCLINATION": 99.41, "RA_OF_ASC_NODE": 47.6846, "ARG_OF_PERICENTER": 50.1324, "MEAN_ANOMALY": 310.2241, "EPHEMERIS_TYPE": 0, "CLASSIFICATION_TYPE": "U", "NORAD_CAT_ID": 31287, "ELEMENT_SET_NO": 999, "REV_AT_EPOCH": 96752, "BSTAR": 0.0011667317, "MEAN_MOTION_DOT": 2.86e-05, "MEAN_MOTION_DDOT": 0}, "tle": {"line1": "1 31287U 99025BNV 25351.38536110  .00002860  00000+0  11667-2 0  9997", "line2": "2 31287  99.4100  47.6846 0027206  50.1324 310.2241 14.28054900967528"}}, "geometry": {"type": "Point", "coordinates": [-122.6226580463157, 15.96188332276101]}}, {"type": "Feature", "properties": {"norad_id": 31288, "name": "FENGYUN 1C DEB", "group": "fengyun-1c-debris", "lat": 29.666238992057334, "lon": -17.758053864925586, "alt_km": 581.5454995926593, "timestamp": "2025-12-23T20:42:37.357604+00:00", "meta": {"OBJECT_NAME": "FENGYUN 1C DEB", "OBJECT_ID": "1999-025BNW", "EPOCH": "2025-12-21T22:11:33.401760", "MEAN_MOTION": 14.96636507, "ECCENTRICITY": 0.00230369, "INCLINATION": 98.7478, "RA_OF_ASC_NODE": 155.0444, "ARG_OF_PERICENTER": 270.1937, "MEAN_ANOMALY": 242.2919, "EPHEMERIS_TYPE": 0, "CLASSIFICATION_TYPE": "U", "NORAD_CAT_ID": 31288, "ELEMENT_SET_NO": 999, "REV_AT_EPOCH": 97694, "BSTAR": 0.005670697, "MEAN_MOTION_DOT": 0.00065498, "MEAN_MOTION_DDOT": 0}, "tle": {"line1": "1 31288U 99025BNW 25355.92469215  .00065498  00000+0  56707-2 0  9993", "line2": "2 31288  98.7478 155.0444 0023036 270.1937 242.2919 14.96636507976944"}}, "geometry": {"type": "Point", "coordinates": [-17.758053864925586, 29.666238992057334]}}, {"type": "Feature", "properties": {"norad_id": 31293, "name": "FENGYUN 1C DEB", "group": "fengyun-1c-debris", "lat": -25.53282939434032, "lon": 9.339200233067356, "alt_km": 842.2037001552635, "timestamp": "2025-12-23T20:42:37.357614+00:00", "meta": {"OBJECT_NAME": "FENGYUN 1C DEB", "OBJECT_ID": "1999-025BPB", "EPOCH": "2025-12-22T06:13:51.554208", "MEAN_MOTION": 14.30816344, "ECCENTRICITY": 0.01257922, "INCLINATION": 98.4224, "RA_OF_ASC_NODE": 3.727, "ARG_OF_PERICENTER": 216.5399, "MEAN_ANOMALY": 142.7154, "EPHEMERIS_TYPE": 0, "CLASSIFICATION_TYPE": "U", "NORAD_CAT_ID": 31293, "ELEMENT_SET_NO": 999, "REV_AT_EPOCH": 65380, "BSTAR": 6.4145544e-05, "MEAN_MOTION_DOT": 1.39e-06, "MEAN_MOTION_DDOT": 0}, "tle": {"line1": "1 31293U 99025BPB 25356.25962447  .00000139  00000+0  64146-4 0  9990", "line2": "2 31293  98.4224   3.7270 0125792 216.5399 142.7154 14.30816344653809"}}, "geometry": {"type": "Point", "coordinates": [9.339200233067356, -25.53282939434032]}}, {"type": "Feature", "properties": {"norad_id": 31294, "name": "FENGYUN 1C DEB", "group": "fengyun-1c-debris", "lat": 42.414442242488214, "lon": -179.09754336136413, "alt_km": 908.6848424639393, "timestamp": "2025-12-23T20:42:37.357625+00:00", "meta": {"OBJECT_NAME": "FENGYUN 1C DEB", "OBJECT_ID": "1999-025BPC", "EPOCH": "2025-12-19T22:44:39.754176", "MEAN_MOTION": 14.15326352, "ECCENTRICITY": 0.0099306, "INCLINATION": 98.5431, "RA_OF_ASC_NODE": 349.2579, "ARG_OF_PERICENTER": 320.3267, "MEAN_ANOMALY": 39.0671, "EPHEMERIS_TYPE": 0, "CLASSIFICATION_TYPE": "U", "NORAD_CAT_ID": 31294, "ELEMENT_SET_NO": 999, "REV_AT_EPOCH": 96955, "BSTAR": 0.00037135, "MEAN_MOTION_DOT": 7.16e-06, "MEAN_MOTION_DDOT": 0}, "tle": {"line1": "1 31294U 99025BPC 25353.94768234  .00000716  00000+0  37135-3 0  9990", "line2": "2 31294  98.5431 349.2579 0099306 320.3267  39.0671 14.15326352969552"}}, "geometry": {"type": "Point", "coordinates": [-179.09754336136413, 42.414442242488214]}}, {"type": "Feature", "properties": {"norad_id": 31295, "name": "FENGYUN 1C DEB", "group": "fengyun-1c-debris", "lat": 62.482247061248856, "lon": 165.43685186227842, "alt_km": 949.9418088018047, "timestamp": "2025-12-23T20:42:37.357635+00:00", "meta": {"OBJECT_NAME": "FENGYUN 1C DEB", "OBJECT_ID": "1999-025BPD", "EPOCH": "2025-12-22T18:36:54.280800", "MEAN_MOTION": 13.96833755, "ECCENTRICITY": 0.00771811, "INCLINATION": 98.3163, "RA_OF_ASC_NODE": 180.7589, "ARG_OF_PERICENTER": 222.7401, "MEAN_ANOMALY": 136.7745, "EPHEMERIS_TYPE": 0, "CLASSIFICATION_TYPE": "U", "NORAD_CAT_ID": 31295, "ELEMENT_SET_NO": 999, "REV_AT_EPOCH": 95643, "BSTAR": -8.476048e-06, "MEAN_MOTION_DOT": -5e-07, "MEAN_MOTION_DDOT": 0}, "tle": {"line1": "1 31295U 99025BPD 25356.77562825 -.00000050  00000+0 -84760-5 0  9994", "line2": "2 31295  98.3163 180.7589 0077181 222.7401 136.7745 13.96833755956432"}}, "geometry": {"type": "Point", "coordinates": [165.43685186227842, 62.482247061248856]}}, {"type": "Feature", "properties": {"norad_id": 31296, "name": "FENGYUN 1C DEB", "group": "fengyun-1c-debris", "lat": -16.68072028987591, "lon": -83.23390500856065, "alt_km": 673.1209174135602, "timestamp": "2025-12-23T20:42:37.357646+00:00", "meta": {"OBJECT_NAME": "FENGYUN 1C DEB", "OBJECT_ID": "1999-025BPE", "EPOCH": "2025-12-22T17:03:09.488736", "MEAN_MOTION": 14.71918726, "ECCENTRICITY": 0.00197243, "INCLINATION": 99.0675, "RA_OF_ASC_NODE": 272.7399, "ARG_OF_PERICENTER": 179.982, "MEAN_ANOMALY": 180.1388, "EPHEMERIS_TYPE": 0, "CLASSIFICATION_TYPE": "U", "NORAD_CAT_ID": 31296, "ELEMENT_SET_NO": 999, "REV_AT_EPOCH": 97496, "BSTAR": 0.004205009, "MEAN_MOTION_DOT": 0.00026463, "MEAN_MOTION_DDOT": 0}, "tle": {"line1": "1 31296U 99025BPE 25356.71052649  .00026463  00000+0  42050-2 0  9994", "line2": "2 31296  99.0675 272.7399 0019724 179.9820 180.1388 14.71918726974967"}}, "geometry": {"type": "Point", "coordinates": [-83.23390500856065, -16.68072028987591]}}, {"type": "Feature", "properties": {"norad_id": 31297, "name": "FENGYUN 1C DEB", "group": "fengyun-1c-debris", "lat": -53.99661269739394, "lon": -56.94431460587155, "alt_km": 790.7211337740528, "timestamp": "2025-12-23T20:42:37.357656+00:00", "meta": {"OBJECT_NAME": "FENGYUN 1C DEB", "OBJECT_ID": "1999-025BPF", "EPOCH": "2025-12-23T03:57:46.176192", "MEAN_MOTION": 14.57114914, "ECCENTRICITY": 0.01396514, "INCLINATION": 98.9349, "RA_OF_ASC_NODE": 134.8116, "ARG_OF_PERICENTER": 91.3405, "MEAN_ANOMALY": 84.3062, "EPHEMERIS_TYPE": 0, "CLASSIFICATION_TYPE": "U", "NORAD_CAT_ID": 31297, "ELEMENT_SET_NO": 999, "REV_AT_EPOCH": 99467, "BSTAR": 0.00029552128, "MEAN_MOTION_DOT": 1.462e-05, "MEAN_MOTION_DDOT": 0}, "tle": {"line1": "1 31297U 99025BPF 25357.16511778  .00001462  00000+0  29552-3 0  9993", "line2": "2 31297  98.9349 134.8116 0139651  91.3405  84.3062 14.57114914994672"}}, "geometry": {"type": "Point", "coordinates": [-56.94431460587155, -53.99661269739394]}}, {"type": "Feature", "properties": {"norad_id": 31300, "name": "FENGYUN 1C DEB", "group": "fengyun-1c-debris", "lat": -60.3099136242281, "lon": 95.1388520347885, "alt_km": 848.8023124754518, "timestamp": "2025-12-23T20:42:37.357666+00:00", "meta": {"OBJECT_NAME": "FENGYUN 1C DEB", "OBJECT_ID": "1999-025BPJ", "EPOCH": "2025-12-23T04:20:40.394976", "MEAN_MOTION": 14.15170286, "ECCENTRICITY": 0.00596474, "INCLINATION": 99.5419, "RA_OF_ASC_NODE": 77.2521, "ARG_OF_PERICENTER": 30.5415, "MEAN_ANOMALY": 36.28, "EPHEMERIS_TYPE": 0, "CLASSIFICATION_TYPE": "U", "NORAD_CAT_ID": 31300, "ELEMENT_SET_NO": 999, "REV_AT_EPOCH": 96322, "BSTAR": 0.0011467381, "MEAN_MOTION_DOT": 2.216e-05, "MEAN_MOTION_DDOT": 0}, "tle": {"line1": "1 31300U 99025BPJ 25357.18102309  .00002216  00000+0  11467-2 0  9999", "line2": "2 31300  99.5419  77.2521 0059647  30.5415  36.2800 14.15170286963225"}}, "geometry": {"type": "Point", "coordinates": [95.1388520347885, -60.3099136242281]}}, {"type": "Feature", "properties": {"norad_id": 31302, "name": "FENGYUN 1C DEB", "group": "fengyun-1c-debris", "lat": -79.69933327451444, "lon": 106.63963913695909, "alt_km": 813.2055558792272, "timestamp": "2025-12-23T20:42:37.357677+00:00", "meta": {"OBJECT_NAME": "FENGYUN 1C DEB", "OBJECT_ID": "1999-025BPL", "EPOCH": "2025-12-19T15:12:58.171104", "MEAN_MOTION": 14.27574345, "ECCENTRICITY": 0.002659, "INCLINATION": 99.4129, "RA_OF_ASC_NODE": 36.2, "ARG_OF_PERICENTER": 35.1141, "MEAN_ANOMALY": 117.7071, "EPHEMERIS_TYPE": 0, "CLASSIFICATION_TYPE": "U", "NORAD_CAT_ID": 31302, "ELEMENT_SET_NO": 999, "REV_AT_EPOCH": 96456, "BSTAR": 0.00096178, "MEAN_MOTION_DOT": 2.325e-05, "MEAN_MOTION_DDOT": 0}, "tle": {"line1": "1 31302U 99025BPL 25353.63400661  .00002325  00000+0  96178-3 0  9993", "line2": "2 31302  99.4129  36.2000 0026590  35.1141 117.7071 14.27574345964569"}}, "geometry": {"type": "Point", "coordinates": [106.63963913695909, -79.69933327451444]}}]}